<?xml version="1.0" encoding="UTF-8"?>
<ndm xmlns:xsi="http://www.w3.org/2001/XMLSchema-instance" xsi:noNamespaceSchemaLocation="https://sanaregistry.org/r/ndmxml_unqualified/ndmxml-2.0.0-master-2.0.xsd">
<omm id="CCSDS_OMM_VERS" version="2.0">
<header><CREATION_DATE/><ORIGINATOR/></header><body><segment><metadata><OBJECT_NAME>ONEWEB-0533</OBJECT_NAME><OBJECT_ID>2023-004B</OBJECT_ID><CENTER_NAME>EARTH</CENTER_NAME><REF_FRAME>TEME</REF_FRAME><TIME_SYSTEM>UTC</TIME_SYSTEM><MEAN_ELEMENT_THEORY>SGP4</MEAN_ELEMENT_THEORY></metadata><data><meanElements><EPOCH>2023-08-14T06:00:02.000160</EPOCH><MEAN_MOTION>14.17085680</MEAN_MOTION><ECCENTRICITY>.0002447</ECCENTRICITY><INCLINATION>87.0396</INCLINATION><RA_OF_ASC_NODE>199.8468</RA_OF_ASC_NODE><ARG_OF_PERICENTER>130.0745</ARG_OF_PERICENTER><MEAN_ANOMALY>344.6653</MEAN_ANOMALY></meanElements><tleParameters><EPHEMERIS_TYPE>0</EPHEMERIS_TYPE><CLASSIFICATION_TYPE>U</CLASSIFICATION_TYPE><NORAD_CAT_ID>55141</NORAD_CAT_ID><ELEMENT_SET_NO>999</ELEMENT_SET_NO><REV_AT_EPOCH>3162</REV_AT_EPOCH><BSTAR>-.62145E+0</BSTAR><MEAN_MOTION_DOT>-.1174554E-1</MEAN_MOTION_DOT><MEAN_MOTION_DDOT>0</MEAN_MOTION_DDOT></tleParameters></data></segment></body></omm>
<omm id="CCSDS_OMM_VERS" version="2.0">
<header><CREATION_DATE/><ORIGINATOR/></header><body><segment><metadata><OBJECT_NAME>ONEWEB-0541</OBJECT_NAME><OBJECT_ID>2023-004C</OBJECT_ID><CENTER_NAME>EARTH</CENTER_NAME><REF_FRAME>TEME</REF_FRAME><TIME_SYSTEM>UTC</TIME_SYSTEM><MEAN_ELEMENT_THEORY>SGP4</MEAN_ELEMENT_THEORY></metadata><data><meanElements><EPOCH>2023-08-14T00:20:09.425472</EPOCH><MEAN_MOTION>13.11409290</MEAN_MOTION><ECCENTRICITY>.0002109</ECCENTRICITY><INCLINATION>87.8881</INCLINATION><RA_OF_ASC_NODE>227.2793</RA_OF_ASC_NODE><ARG_OF_PERICENTER>89.3293</ARG_OF_PERICENTER><MEAN_ANOMALY>270.8077</MEAN_ANOMALY></meanElements><tleParameters><EPHEMERIS_TYPE>0</EPHEMERIS_TYPE><CLASSIFICATION_TYPE>U</CLASSIFICATION_TYPE><NORAD_CAT_ID>55142</NORAD_CAT_ID><ELEMENT_SET_NO>999</ELEMENT_SET_NO><REV_AT_EPOCH>2988</REV_AT_EPOCH><BSTAR>.30805E-3</BSTAR><MEAN_MOTION_DOT>.122E-5</MEAN_MOTION_DOT><MEAN_MOTION_DDOT>0</MEAN_MOTION_DDOT></tleParameters></data></segment></body></omm>
<omm id="CCSDS_OMM_VERS" version="2.0">
<header><CREATION_DATE/><ORIGINATOR/></header><body><segment><metadata><OBJECT_NAME>ONEWEB-0543</OBJECT_NAME><OBJECT_ID>2023-004D</OBJECT_ID><CENTER_NAME>EARTH</CENTER_NAME><REF_FRAME>TEME</REF_FRAME><TIME_SYSTEM>UTC</TIME_SYSTEM><MEAN_ELEMENT_THEORY>SGP4</MEAN_ELEMENT_THEORY></metadata><data><meanElements><EPOCH>2023-08-13T04:47:22.978464</EPOCH><MEAN_MOTION>14.66128941</MEAN_MOTION><ECCENTRICITY>.0003133</ECCENTRICITY><INCLINATION>86.6290</INCLINATION><RA_OF_ASC_NODE>196.0152</RA_OF_ASC_NODE><ARG_OF_PERICENTER>148.7784</ARG_OF_PERICENTER><MEAN_ANOMALY>211.3616</MEAN_ANOMALY></meanElements><tleParameters><EPHEMERIS_TYPE>0</EPHEMERIS_TYPE><CLASSIFICATION_TYPE>U</CLASSIFICATION_TYPE><NORAD_CAT_ID>55143</NORAD_CAT_ID><ELEMENT_SET_NO>999</ELEMENT_SET_NO><REV_AT_EPOCH>3174</REV_AT_EPOCH><BSTAR>.15473E-3</BSTAR><MEAN_MOTION_DOT>.873E-5</MEAN_MOTION_DOT><MEAN_MOTION_DDOT>0</MEAN_MOTION_DDOT></tleParameters></data></segment></body></omm>
<omm id="CCSDS_OMM_VERS" version="2.0">
<header><CREATION_DATE/><ORIGINATOR/></header><body><segment><metadata><OBJECT_NAME>ONEWEB-0544</OBJECT_NAME><OBJECT_ID>2023-004E</OBJECT_ID><CENTER_NAME>EARTH</CENTER_NAME><REF_FRAME>TEME</REF_FRAME><TIME_SYSTEM>UTC</TIME_SYSTEM><MEAN_ELEMENT_THEORY>SGP4</MEAN_ELEMENT_THEORY></metadata><data><meanElements><EPOCH>2023-08-13T08:12:20.933280</EPOCH><MEAN_MOTION>14.66109449</MEAN_MOTION><ECCENTRICITY>.0002297</ECCENTRICITY><INCLINATION>86.6312</INCLINATION><RA_OF_ASC_NODE>195.8957</RA_OF_ASC_NODE><ARG_OF_PERICENTER>110.7831</ARG_OF_PERICENTER><MEAN_ANOMALY>249.3629</MEAN_ANOMALY></meanElements><tleParameters><EPHEMERIS_TYPE>0</EPHEMERIS_TYPE><CLASSIFICATION_TYPE>U</CLASSIFICATION_TYPE><NORAD_CAT_ID>55144</NORAD_CAT_ID><ELEMENT_SET_NO>999</ELEMENT_SET_NO><REV_AT_EPOCH>3177</REV_AT_EPOCH><BSTAR>.209E-3</BSTAR><MEAN_MOTION_DOT>.117E-4</MEAN_MOTION_DOT><MEAN_MOTION_DDOT>0</MEAN_MOTION_DDOT></tleParameters></data></segment></body></omm>
<omm id="CCSDS_OMM_VERS" version="2.0">
<header><CREATION_DATE/><ORIGINATOR/></header><body><segment><metadata><OBJECT_NAME>ONEWEB-0560</OBJECT_NAME><OBJECT_ID>2023-004F</OBJECT_ID><CENTER_NAME>EARTH</CENTER_NAME><REF_FRAME>TEME</REF_FRAME><TIME_SYSTEM>UTC</TIME_SYSTEM><MEAN_ELEMENT_THEORY>SGP4</MEAN_ELEMENT_THEORY></metadata><data><meanElements><EPOCH>2023-08-13T17:54:22.464576</EPOCH><MEAN_MOTION>14.66136363</MEAN_MOTION><ECCENTRICITY>.0003446</ECCENTRICITY><INCLINATION>86.6329</INCLINATION><RA_OF_ASC_NODE>195.7629</RA_OF_ASC_NODE><ARG_OF_PERICENTER>107.7624</ARG_OF_PERICENTER><MEAN_ANOMALY>252.3966</MEAN_ANOMALY></meanElements><tleParameters><EPHEMERIS_TYPE>0</EPHEMERIS_TYPE><CLASSIFICATION_TYPE>U</CLASSIFICATION_TYPE><NORAD_CAT_ID>55145</NORAD_CAT_ID><ELEMENT_SET_NO>999</ELEMENT_SET_NO><REV_AT_EPOCH>3183</REV_AT_EPOCH><BSTAR>.22008E-3</BSTAR><MEAN_MOTION_DOT>.1232E-4</MEAN_MOTION_DOT><MEAN_MOTION_DDOT>0</MEAN_MOTION_DDOT></tleParameters></data></segment></body></omm>
<omm id="CCSDS_OMM_VERS" version="2.0">
<header><CREATION_DATE/><ORIGINATOR/></header><body><segment><metadata><OBJECT_NAME>ONEWEB-0565</OBJECT_NAME><OBJECT_ID>2023-004G</OBJECT_ID><CENTER_NAME>EARTH</CENTER_NAME><REF_FRAME>TEME</REF_FRAME><TIME_SYSTEM>UTC</TIME_SYSTEM><MEAN_ELEMENT_THEORY>SGP4</MEAN_ELEMENT_THEORY></metadata><data><meanElements><EPOCH>2023-08-13T17:15:54.340416</EPOCH><MEAN_MOTION>14.66078971</MEAN_MOTION><ECCENTRICITY>.0002615</ECCENTRICITY><INCLINATION>86.6310</INCLINATION><RA_OF_ASC_NODE>195.6851</RA_OF_ASC_NODE><ARG_OF_PERICENTER>115.7266</ARG_OF_PERICENTER><MEAN_ANOMALY>244.4218</MEAN_ANOMALY></meanElements><tleParameters><EPHEMERIS_TYPE>0</EPHEMERIS_TYPE><CLASSIFICATION_TYPE>U</CLASSIFICATION_TYPE><NORAD_CAT_ID>55146</NORAD_CAT_ID><ELEMENT_SET_NO>999</ELEMENT_SET_NO><REV_AT_EPOCH>3183</REV_AT_EPOCH><BSTAR>.23039E-3</BSTAR><MEAN_MOTION_DOT>.1286E-4</MEAN_MOTION_DOT><MEAN_MOTION_DDOT>0</MEAN_MOTION_DDOT></tleParameters></data></segment></body></omm>
<omm id="CCSDS_OMM_VERS" version="2.0">
<header><CREATION_DATE/><ORIGINATOR/></header><body><segment><metadata><OBJECT_NAME>ONEWEB-0567</OBJECT_NAME><OBJECT_ID>2023-004H</OBJECT_ID><CENTER_NAME>EARTH</CENTER_NAME><REF_FRAME>TEME</REF_FRAME><TIME_SYSTEM>UTC</TIME_SYSTEM><MEAN_ELEMENT_THEORY>SGP4</MEAN_ELEMENT_THEORY></metadata><data><meanElements><EPOCH>2023-08-13T17:28:03.264384</EPOCH><MEAN_MOTION>14.66128967</MEAN_MOTION><ECCENTRICITY>.0003094</ECCENTRICITY><INCLINATION>86.6308</INCLINATION><RA_OF_ASC_NODE>195.6893</RA_OF_ASC_NODE><ARG_OF_PERICENTER>170.1974</ARG_OF_PERICENTER><MEAN_ANOMALY>189.9300</MEAN_ANOMALY></meanElements><tleParameters><EPHEMERIS_TYPE>0</EPHEMERIS_TYPE><CLASSIFICATION_TYPE>U</CLASSIFICATION_TYPE><NORAD_CAT_ID>55147</NORAD_CAT_ID><ELEMENT_SET_NO>999</ELEMENT_SET_NO><REV_AT_EPOCH>3183</REV_AT_EPOCH><BSTAR>.20949E-3</BSTAR><MEAN_MOTION_DOT>.1173E-4</MEAN_MOTION_DOT><MEAN_MOTION_DDOT>0</MEAN_MOTION_DDOT></tleParameters></data></segment></body></omm>
<omm id="CCSDS_OMM_VERS" version="2.0">
<header><CREATION_DATE/><ORIGINATOR/></header><body><segment><metadata><OBJECT_NAME>ONEWEB-0569</OBJECT_NAME><OBJECT_ID>2023-004J</OBJECT_ID><CENTER_NAME>EARTH</CENTER_NAME><REF_FRAME>TEME</REF_FRAME><TIME_SYSTEM>UTC</TIME_SYSTEM><MEAN_ELEMENT_THEORY>SGP4</MEAN_ELEMENT_THEORY></metadata><data><meanElements><EPOCH>2023-08-13T23:36:51.691968</EPOCH><MEAN_MOTION>14.66065813</MEAN_MOTION><ECCENTRICITY>.0001681</ECCENTRICITY><INCLINATION>86.5362</INCLINATION><RA_OF_ASC_NODE>194.8259</RA_OF_ASC_NODE><ARG_OF_PERICENTER>157.4583</ARG_OF_PERICENTER><MEAN_ANOMALY>202.6705</MEAN_ANOMALY></meanElements><tleParameters><EPHEMERIS_TYPE>0</EPHEMERIS_TYPE><CLASSIFICATION_TYPE>U</CLASSIFICATION_TYPE><NORAD_CAT_ID>55148</NORAD_CAT_ID><ELEMENT_SET_NO>999</ELEMENT_SET_NO><REV_AT_EPOCH>3186</REV_AT_EPOCH><BSTAR>.22688E-3</BSTAR><MEAN_MOTION_DOT>.1267E-4</MEAN_MOTION_DOT><MEAN_MOTION_DDOT>0</MEAN_MOTION_DDOT></tleParameters></data></segment></body></omm>

</ndm>
