ONEWEB-0533             
1 55141U 23004B   23226.25002315 -.01174554  00000+0 -62145+0 0  9993
2 55141  87.0396 199.8468 0002447 130.0745 344.6653 14.17085680 31626
ONEWEB-0541             
1 55142U 23004C   23226.01399798  .00000122  00000+0  30805-3 0  9990
2 55142  87.8881 227.2793 0002109  89.3293 270.8077 13.11409290 29885
ONEWEB-0543             
1 55143U 23004D   23225.19957151  .00000873  00000+0  15473-3 0  9999
2 55143  86.6290 196.0152 0003133 148.7784 211.3616 14.66128941 31741
ONEWEB-0544             
1 55144U 23004E   23225.34190895  .00001170  00000+0  20900-3 0  9993
2 55144  86.6312 195.8957 0002297 110.7831 249.3629 14.66109449 31779
ONEWEB-0560             
1 55145U 23004F   23225.74609334  .00001232  00000+0  22008-3 0  9991
2 55145  86.6329 195.7629 0003446 107.7624 252.3966 14.66136363 31836
ONEWEB-0565             
1 55146U 23004G   23225.71937894  .00001286  00000+0  23039-3 0  9998
2 55146  86.6310 195.6851 0002615 115.7266 244.4218 14.66078971 31833
ONEWEB-0567             
1 55147U 23004H   23225.72781556  .00001173  00000+0  20949-3 0  9994
2 55147  86.6308 195.6893 0003094 170.1974 189.9300 14.66128967 31836
ONEWEB-0569             
1 55148U 23004J   23225.98393162  .00001267  00000+0  22688-3 0  9991
2 55148  86.5362 194.8259 0001681 157.4583 202.6705 14.66065813 31862
